#aV2019 11  7  0  0  0.00000000     288 DD+AD WGS84 FIT  NGA
## 2078 345600.00000000   300.00000000 58794 0.0000000000000
+   32     1  2  3  4  5  6  7  8  9 10 11 12 13 14 15 16 17
+         18 19 20 21 22 23 24 25 26 27 28 29 30 31 32  0  0
+          0  0  0  0  0  0  0  0  0  0  0  0  0  0  0  0  0
+          0  0  0  0  0  0  0  0  0  0  0  0  0  0  0  0  0
+          0  0  0  0  0  0  0  0  0  0  0  0  0  0  0  0  0
++         2  2  2  2  2  2  2  2  2  2  2  2  2  2  2  2  2
++         2  2  2  2  2  2  2  2  2  2  2  2  2  2  2  0  0
++         0  0  0  0  0  0  0  0  0  0  0  0  0  0  0  0  0
++         0  0  0  0  0  0  0  0  0  0  0  0  0  0  0  0  0
++         0  0  0  0  0  0  0  0  0  0  0  0  0  0  0  0  0
%c cc cc ccc ccc cccc cccc cccc cccc ccccc ccccc ccccc ccccc
%c cc cc ccc ccc cccc cccc cccc cccc ccccc ccccc ccccc ccccc
%f  0.0000000  0.000000000  0.00000000000  0.000000000000000
%f  0.0000000  0.000000000  0.00000000000  0.000000000000000
%i    0    0    0    0      0      0      0      0         0
%i    0    0    0    0      0      0      0      0         0
/*      NGA, ST. LOUIS,MO.                                  
/*   EPHEMERIS COMPUTED FROM 2 DAYS OF DATA                 
/*   EPOCHA v5 SMOOTHER                                     
/*   G1762 IERS2010 SATAF SATAPC                            
*  2019 11  7 22 50  0.00000000
P  1 -22337.648298 -14390.193651   2733.512158   -189.709795                    
V  1  -1747.054211  -3815.207239 -31671.953121     -0.127945                    
P  2   8662.084610  19433.683997  16595.646707   -342.189772                    
V  2 -17651.440478  -9305.328118  20783.580154     -0.077130                    
P  3 -13563.090425  -9150.848084  20880.115782    -33.317160                    
V  3   3732.014132 -26370.045483  -9020.065701     -0.055877                    
P  4 -24811.013059   9335.805295    758.535589     -6.725972                    
V  4   -222.457222  -3029.536195  31749.594239     -0.038316                    
P  5   4159.546531  24693.572701  -8684.736125     -3.186238                    
V  5  -3910.081159  10625.586354  28984.616247     -0.004452                    
P  6  -5512.135054  14195.773129  21803.517224   -116.472164                    
V  6 -22395.438551 -16013.472238   4799.046038     -0.121599                    
P  7 -21115.248501  -1767.021320 -16020.346479   -143.966093                    
V  7 -15401.834165 -13938.853239  20990.130065     -0.081298                    
P  8 -13449.242739  -9558.696418 -20824.226951    -12.593701                    
V  8  23799.173435 -11547.655858  -9840.899578     -0.012233                    
P  9 -24973.096796   6321.958635   6428.760780    -77.543379                    
V  9   6283.710022  -6087.752964  30143.184661     -0.098373                    
P 10  11479.233391 -19731.250394 -13323.139776   -125.710006                    
V 10    452.627806  17257.420190 -25266.214971     -0.149346                    
P 11 -24145.066362  -9141.313086  -6011.640235   -454.770485                    
V 11   7800.134142  -3019.716248 -29530.186532      0.111581                    
P 12  10290.266975  15057.016296  19152.724755    185.874956                    
V 12  -5462.213643  24084.336582 -15663.822381     -0.039600                    
P 13   3711.259757  14656.379555 -21956.217832    -34.198090                    
V 13 -26468.336916   7709.617573    746.040122      0.022768                    
P 14  10151.127438 -16865.694654  18071.082377    -51.768145                    
V 14  21669.317539  -5765.084067 -18058.164960      0.021249                    
P 15  15470.910097   8646.959501 -20174.311587   -274.261246                    
V 15 -21290.761300  13149.474361 -10459.700313      0.027001                    
P 16    155.657947 -25355.264378  -7287.456656    -90.938976                    
V 16   4135.148716  -8437.046708  30658.063053     -0.037149                    
P 17 -19341.066793  14865.864598  10827.320007    158.824081                    
V 17 -12904.095550   2920.592338 -28238.431018      0.069896                    
P 18 -19033.187240 -17726.848021  -6123.162426     98.615238                    
V 18   7420.057188   1671.472503 -30327.790162      0.026085                    
P 19 -14260.831358  15623.943120  15779.111466   -242.866417                    
V 19 -20023.626203   4778.798306 -22392.540034      0.052108                    
P 20  14467.641696 -10530.098052 -19673.369508    527.408264                    
V 20   1898.658599  24899.311643 -12185.408444      0.000933                    
P 21  18778.609721  -2909.732044 -17684.835553    -89.682697                    
V 21  19193.695187  14829.936176  17386.424315      0.060226                    
P 22 -12186.429830 -16625.155003  17019.103434   -770.063491                    
V 22   2915.928626 -21180.346045 -18743.861741     -0.027095                    
P 23 -22018.508132  -2066.032280  15330.340877   -156.867200                    
V 23  16166.893238  -9711.433761  22035.145219      0.022158                    
P 24  22446.607709  14555.911679    159.090278     -4.586000                    
V 24  -1434.485223   2927.524333 -31010.605937     -0.004382                    
P 25  15095.701880  -1216.294354  21585.192658    -16.860447                    
V 25  -2768.051566  27787.853394   3720.447207     -0.004850                    
P 26   4551.086346 -25840.335704   3347.059693     79.235345                    
V 26   2957.787729   4561.730455  31239.476702      0.084199                    
P 27   -770.662785 -15527.008808 -21602.906217   -112.770764                    
V 27  25116.733003 -10358.029146   6882.973442     -0.119853                    
P 28 -12288.952651  20016.932834 -11904.185653    756.020321                    
V 28   1328.986349 -16068.333955 -26911.809959     -0.016226                    
P 29  25138.402949  -3511.342918   7834.917551     50.238521                    
V 29  -8740.364473   5126.896943  30197.711579     -0.099987                    
P 30 -13673.385087   8727.901206 -21026.145630    -78.886652                    
V 30 -20583.671896 -17203.819218   6040.556770     -0.083737                    
P 31   4119.981768 -15522.454326  21059.568056     -1.671707                    
V 31  21740.122792  15827.920833   7855.665607     -0.025721                    
P 32  18458.187594 -16083.064973  10195.592320    117.673511                    
V 32  12885.992380  -2796.118550 -28031.454023      0.123274                    
EOF
